[{"OBJECT_NAME":"OBJECT A","OBJECT_ID":"2023-104A","EPOCH":"2026-03-06T18:47:13.750656","MEAN_MOTION":15.33350758,"ECCENTRICITY":0.00093331,"INCLINATION":97.2792,"RA_OF_ASC_NODE":135.5625,"ARG_OF_PERICENTER":122.1915,"MEAN_ANOMALY":238.0234,"EPHEMERIS_TYPE":0,"CLASSIFICATION_TYPE":"U","NORAD_CAT_ID":57424,"ELEMENT_SET_NO":999,"REV_AT_EPOCH":14634,"BSTAR":0.00048200218,"MEAN_MOTION_DOT":0.00015492,"MEAN_MOTION_DDOT":0},{"OBJECT_NAME":"STARLINK-32422","OBJECT_ID":"2024-187U","EPOCH":"2026-03-09T23:11:53.523744","MEAN_MOTION":15.30194257,"ECCENTRICITY":0.00013505,"INCLINATION":53.1618,"RA_OF_ASC_NODE":48.2807,"ARG_OF_PERICENTER":78.0614,"MEAN_ANOMALY":282.0538,"EPHEMERIS_TYPE":0,"CLASSIFICATION_TYPE":"U","NORAD_CAT_ID":61592,"ELEMENT_SET_NO":999,"REV_AT_EPOCH":7934,"BSTAR":4.7814487e-5,"MEAN_MOTION_DOT":1.057e-5,"MEAN_MOTION_DDOT":0}]
